CTC1_L_00104016-03
1 38960U 22942HS  26070.40832176  .00000000  00000+0  00000-0 0  9990
2 38960  95.0000 180.0000 0000000   0.0000   0.0000 14.42576008    19
CTC1_L_00104016-04
1 38961U 23196MI  26070.40832176  .00000000  00000+0  00000-0 0  9993
2 38961  95.0000 180.0000 0000000   0.0000  90.0000 14.42576008    19
CTC1_L_00104017-01
1 38962U 22255NM  26070.40832176  .00000000  00000+0  00000-0 0  9999
2 38962  95.0000 192.0000 0000000   0.0000 192.0000 14.42576008    16
CTC1_L_00104017-02
1 38963U 22497SG  26070.40832176  .00000000  00000+0  00000-0 0  9998
2 38963  95.0000 192.0000 0000000   0.0000 282.0000 14.42576008    17
CTC1_L_00104017-03
1 38964U 22781SV  26070.40832176  .00000000  00000+0  00000-0 0  9995
2 38964  95.0000 192.0000 0000000   0.0000  12.0000 14.42576008    19
CTC1_L_00104017-04
1 38965U 26219GA  26070.40832176  .00000000  00000+0  00000-0 0  9996
2 38965  95.0000 192.0000 0000000   0.0000 102.0000 14.42576008    10
CTC1_L_00104018-01
1 38966U 23930VW  26070.40832176  .00000000  00000+0  00000-0 0  9994
2 38966  95.0000 204.0000 0000000   0.0000 204.0000 14.42576008    18
CTC1_L_00104018-02
1 38967U 22300SL  26070.40832176  .00000000  00000+0  00000-0 0  9995
2 38967  95.0000 204.0000 0000000   0.0000 294.0000 14.42576008    18
CTC1_L_00104018-03
1 38968U 26579AC  26070.40832176  .00000000  00000+0  00000-0 0  9998
2 38968  95.0000 204.0000 0000000   0.0000  24.0000 14.42576008    10
CTC1_L_00104018-04
1 38969U 22548CJ  26070.40832176  .00000000  00000+0  00000-0 0  9991
2 38969  95.0000 204.0000 0000000   0.0000 114.0000 14.42576008    11
CTC1_L_00104019-01
1 38970U 22455KC  26070.40832176  .00000000  00000+0  00000-0 0  9990
2 38970  95.0000 216.0000 0000000   0.0000 216.0000 14.42576008    19
CTC1_L_00104019-02
1 38971U 26019TV  26070.40832176  .00000000  00000+0  00000-0 0  9991
2 38971  95.0000 216.0000 0000000   0.0000 306.0000 14.42576008    10
CTC1_L_00104019-03
1 38972U 25162KV  26070.40832176  .00000000  00000+0  00000-0 0  9990
2 38972  95.0000 216.0000 0000000   0.0000  36.0000 14.42576008    11
CTC1_L_00104019-04
1 38973U 26108OD  26070.40832176  .00000000  00000+0  00000-0 0  9992
2 38973  95.0000 216.0000 0000000   0.0000 126.0000 14.42576008    12
CTC1_L_00104020-01
1 38974U 25944MZ  26070.40832176  .00000000  00000+0  00000-0 0  9990
2 38974  95.0000 228.0000 0000000   0.0000 228.0000 14.42576008    19
CTC1_L_00104020-02
1 38975U 25053WR  26070.40832176  .00000000  00000+0  00000-0 0  9992
2 38975  95.0000 228.0000 0000000   0.0000 318.0000 14.42576008    10
CTC1_L_00104020-03
1 38976U 25112RK  26070.40832176  .00000000  00000+0  00000-0 0  9999
2 38976  95.0000 228.0000 0000000   0.0000  48.0000 14.42576008    11
CTC1_L_00104020-04
1 38977U 26526JF  26070.40832176  .00000000  00000+0  00000-0 0  9990
2 38977  95.0000 228.0000 0000000   0.0000 138.0000 14.42576008    12
CTC1_L_00104021-01
1 38978U 23889GF  26070.40832176  .00000000  00000+0  00000-0 0  9990
2 38978  95.0000 240.0000 0000000   0.0000 240.0000 14.42576008    11
CTC1_L_00104021-02
1 38979U 26492RY  26070.40832176  .00000000  00000+0  00000-0 0  9994
2 38979  95.0000 240.0000 0000000   0.0000 330.0000 14.42576008    12
CTC1_L_00104021-03
1 38980U 25150PD  26070.40832176  .00000000  00000+0  00000-0 0  9996
2 38980  95.0000 240.0000 0000000   0.0000  60.0000 14.42576008    14
CTC1_L_00104021-04
1 38981U 26943MU  26070.40832176  .00000000  00000+0  00000-0 0  9998
2 38981  95.0000 240.0000 0000000   0.0000 150.0000 14.42576008    15
CTC1_L_00104022-01
1 38982U 23233MY  26070.40832176  .00000000  00000+0  00000-0 0  9998
2 38982  95.0000 252.0000 0000000   0.0000 252.0000 14.42576008    12
CTC1_L_00104022-02
1 38983U 26607KP  26070.40832176  .00000000  00000+0  00000-0 0  9997
2 38983  95.0000 252.0000 0000000   0.0000 342.0000 14.42576008    13
CTC1_L_00104022-03
1 38984U 23950HX  26070.40832176  .00000000  00000+0  00000-0 0  9996
2 38984  95.0000 252.0000 0000000   0.0000  72.0000 14.42576008    14
CTC1_L_00104022-04
1 38985U 23177MU  26070.40832176  .00000000  00000+0  00000-0 0  9998
2 38985  95.0000 252.0000 0000000   0.0000 162.0000 14.42576008    15
CTC1_L_00104023-01
1 38986U 26626ZI  26070.40832176  .00000000  00000+0  00000-0 0  9991
2 38986  95.0000 264.0000 0000000   0.0000 264.0000 14.42576008    12
CTC1_L_00104023-02
1 38987U 26543EY  26070.40832176  .00000000  00000+0  00000-0 0  9990
2 38987  95.0000 264.0000 0000000   0.0000 354.0000 14.42576008    13
CTC1_L_00104023-03
1 38988U 22034IL  26070.40832176  .00000000  00000+0  00000-0 0  9992
2 38988  95.0000 264.0000 0000000   0.0000  84.0000 14.42576008    14
CTC1_L_00104023-04
1 38989U 22807FG  26070.40832176  .00000000  00000+0  00000-0 0  9991
2 38989  95.0000 264.0000 0000000   0.0000 174.0000 14.42576008    15
CTC1_L_00104024-01
1 38990U 24308LW  26070.40832176  .00000000  00000+0  00000-0 0  9991
2 38990  95.0000 276.0000 0000000   0.0000 276.0000 14.42576008    13
CTC1_L_00104024-02
1 38991U 25130EY  26070.40832176  .00000000  00000+0  00000-0 0  9996
2 38991  95.0000 276.0000 0000000   0.0000   6.0000 14.42576008    15
CTC1_L_00104024-03
1 38992U 26293RL  26070.40832176  .00000000  00000+0  00000-0 0  9998
2 38992  95.0000 276.0000 0000000   0.0000  96.0000 14.42576008    15
CTC1_L_00104024-04
1 38993U 24410PU  26070.40832176  .00000000  00000+0  00000-0 0  9998
2 38993  95.0000 276.0000 0000000   0.0000 186.0000 14.42576008    16
CTC1_L_00104025-01
1 38994U 24216JF  26070.40832176  .00000000  00000+0  00000-0 0  9993
2 38994  95.0000 288.0000 0000000   0.0000 288.0000 14.42576008    13
CTC1_L_00104025-02
1 38995U 23360VC  26070.40832176  .00000000  00000+0  00000-0 0  9993
2 38995  95.0000 288.0000 0000000   0.0000  18.0000 14.42576008    15
CTC1_L_00104025-03
1 38996U 25778AI  26070.40832176  .00000000  00000+0  00000-0 0  9999
2 38996  95.0000 288.0000 0000000   0.0000 108.0000 14.42576008    16
CTC1_L_00104025-04
1 38997U 26150GO  26070.40832176  .00000000  00000+0  00000-0 0  9995
2 38997  95.0000 288.0000 0000000   0.0000 198.0000 14.42576008    16
CTC1_L_00104026-01
1 38998U 23716HT  26070.40832176  .00000000  00000+0  00000-0 0  9991
2 38998  95.0000 300.0000 0000000   0.0000 300.0000 14.42576008    17
CTC1_L_00104026-02
1 38999U 25650YD  26070.40832176  .00000000  00000+0  00000-0 0  9991
2 38999  95.0000 300.0000 0000000   0.0000  30.0000 14.42576008    18
CTC1_L_00104026-03
1 39000U 25120GN  26070.40832176  .00000000  00000+0  00000-0 0  9997
2 39000  95.0000 300.0000 0000000   0.0000 120.0000 14.42576008    12
CTC1_L_00104026-04
1 39001U 23213JP  26070.40832176  .00000000  00000+0  00000-0 0  9999
2 39001  95.0000 300.0000 0000000   0.0000 210.0000 14.42576008    13
CTC1_L_00104027-01
1 39002U 25342PK  26070.40832176  .00000000  00000+0  00000-0 0  9995
2 39002  95.0000 312.0000 0000000   0.0000 312.0000 14.42576008    10
CTC1_L_00104027-02
1 39003U 25204NQ  26070.40832176  .00000000  00000+0  00000-0 0  9993
2 39003  95.0000 312.0000 0000000   0.0000  42.0000 14.42576008    11
CTC1_L_00104027-03
1 39004U 23676VH  26070.40832176  .00000000  00000+0  00000-0 0  9995
2 39004  95.0000 312.0000 0000000   0.0000 132.0000 14.42576008    12
CTC1_L_00104027-04
1 39005U 23755DN  26070.40832176  .00000000  00000+0  00000-0 0  9994
2 39005  95.0000 312.0000 0000000   0.0000 222.0000 14.42576008    13
CTC1_L_00104028-01
1 39006U 22212G   26070.40832176  .00000000  00000+0  00000-0 0  9992
2 39006  95.0000 324.0000 0000000   0.0000 324.0000 14.42576008    10
CTC1_L_00104028-02
1 39007U 23446NE  26070.40832176  .00000000  00000+0  00000-0 0  9993
2 39007  95.0000 324.0000 0000000   0.0000  54.0000 14.42576008    11
CTC1_L_00104028-03
1 39008U 26412FV  26070.40832176  .00000000  00000+0  00000-0 0  9990
2 39008  95.0000 324.0000 0000000   0.0000 144.0000 14.42576008    12
CTC1_L_00104028-04
1 39009U 26527UC  26070.40832176  .00000000  00000+0  00000-0 0  9998
2 39009  95.0000 324.0000 0000000   0.0000 234.0000 14.42576008    13
CTC1_L_00104029-01
1 39010U 25209VM  26070.40832176  .00000000  00000+0  00000-0 0  9996
2 39010  95.0000 336.0000 0000000   0.0000 336.0000 14.42576008    11
CTC1_L_00104029-02
1 39011U 25292AP  26070.40832176  .00000000  00000+0  00000-0 0  9999
2 39011  95.0000 336.0000 0000000   0.0000  66.0000 14.42576008    12
CTC1_L_00104029-03
1 39012U 23377BK  26070.40832176  .00000000  00000+0  00000-0 0  9992
2 39012  95.0000 336.0000 0000000   0.0000 156.0000 14.42576008    13
CTC1_L_00104029-04
1 39013U 26767EN  26070.40832176  .00000000  00000+0  00000-0 0  9999
2 39013  95.0000 336.0000 0000000   0.0000 246.0000 14.42576008    14
CTC1_L_00104030-01
1 39014U 24220HY  26070.40832176  .00000000  00000+0  00000-0 0  9992
2 39014  95.0000 348.0000 0000000   0.0000 348.0000 14.42576008    11
CTC1_L_00104030-02
1 39015U 22047PM  26070.40832176  .00000000  00000+0  00000-0 0  9998
2 39015  95.0000 348.0000 0000000   0.0000  78.0000 14.42576008    12
CTC1_L_00104030-03
1 39016U 22258TH  26070.40832176  .00000000  00000+0  00000-0 0  9993
2 39016  95.0000 348.0000 0000000   0.0000 168.0000 14.42576008    13
CTC1_L_00104030-04
1 39017U 25024BJ  26070.40832176  .00000000  00000+0  00000-0 0  9998
2 39017  95.0000 348.0000 0000000   0.0000 258.0000 14.42576008    14
